start=new Date('2022-06-06T00:00:00.000Z').valueOf();
sats=[{"EPOCH":"2022-06-05T22:00:00.999936","ELEMENT_SET_NO":"999","GP_ID":"205449272","APOAPSIS":"437.827","ECCENTRICITY":"0.00011060","SITE":"AFETR","TIME_SYSTEM":"UTC","CLASSIFICATION_TYPE":"U","RA_OF_ASC_NODE":"64.5530","OBJECT_TYPE":"PAYLOAD","OBJECT_NAME":"STARLINK-3636","COUNTRY_CODE":"US","CENTER_NAME":"EARTH","ARG_OF_PERICENTER":"85.7657","TLE_LINE2":"2 51995  53.2175  64.5530 0001106  85.7657 333.8597 15.43064340  1305","INCLINATION":"53.2175","MEAN_ELEMENT_THEORY":"SGP4","TLE_LINE1":"1 51995U 22025AR  22156.91667824 -.00720903  00000-0 -17381-1 0  9993","MEAN_MOTION":"15.43064340","DECAY_DATE":null,"REF_FRAME":"TEME","LAUNCH_DATE":"2022-03-09","PERIOD":"93.321","MEAN_MOTION_DDOT":"0.0000000000000","REV_AT_EPOCH":"130","RCS_SIZE":"LARGE","FILE":"3482995","EPHEMERIS_TYPE":"0","MEAN_MOTION_DOT":"-0.00720903","BSTAR":"-0.01738100000000","NORAD_CAT_ID":"51995","PERIAPSIS":"436.320","OBJECT_ID":"2022-025AR","MEAN_ANOMALY":"333.8597","SEMIMAJOR_AXIS":"6815.209"},{"TLE_LINE2":"2 51996  53.2175  64.5985 0001127  90.2381 344.8520 15.43856078 15151","INCLINATION":"53.2175","MEAN_ELEMENT_THEORY":"SGP4","MEAN_MOTION":"15.43856078","TLE_LINE1":"1 51996U 22025AS  22156.91667824 -.00720919  00000-0 -16920-1 0  9999","DECAY_DATE":null,"REF_FRAME":"TEME","LAUNCH_DATE":"2022-03-09","PERIOD":"93.273","MEAN_MOTION_DDOT":"0.0000000000000","REV_AT_EPOCH":"1515","RCS_SIZE":"LARGE","FILE":"3482703","MEAN_MOTION_DOT":"-0.00720919","EPHEMERIS_TYPE":"0","BSTAR":"-0.01692000000000","NORAD_CAT_ID":"51996","OBJECT_ID":"2022-025AS","PERIAPSIS":"433.976","MEAN_ANOMALY":"344.8520","SEMIMAJOR_AXIS":"6812.878","EPOCH":"2022-06-05T22:00:00.999936","ELEMENT_SET_NO":"999","GP_ID":"205416375","ECCENTRICITY":"0.00011270","APOAPSIS":"435.511","SITE":"AFETR","TIME_SYSTEM":"UTC","CLASSIFICATION_TYPE":"U","RA_OF_ASC_NODE":"64.5985","OBJECT_TYPE":"PAYLOAD","OBJECT_NAME":"STARLINK-3538","COUNTRY_CODE":"US","CENTER_NAME":"EARTH","ARG_OF_PERICENTER":"90.2381"},{"PERIOD":"93.309","LAUNCH_DATE":"2022-03-09","REF_FRAME":"TEME","FILE":"3482995","RCS_SIZE":"LARGE","MEAN_MOTION_DDOT":"0.0000000000000","REV_AT_EPOCH":"130","INCLINATION":"53.2175","TLE_LINE2":"2 51997  53.2175  64.5644 0001114  83.1713 340.4585 15.43262310  1305","DECAY_DATE":null,"MEAN_MOTION":"15.43262310","TLE_LINE1":"1 51997U 22025AT  22156.91667824 -.00720953  00000-0 -17266-1 0  9992","MEAN_ELEMENT_THEORY":"SGP4","PERIAPSIS":"435.732","OBJECT_ID":"2022-025AT","SEMIMAJOR_AXIS":"6814.626","MEAN_ANOMALY":"340.4585","NORAD_CAT_ID":"51997","BSTAR":"-0.01726600000000","MEAN_MOTION_DOT":"-0.00720953","EPHEMERIS_TYPE":"0","ELEMENT_SET_NO":"999","APOAPSIS":"437.250","ECCENTRICITY":"0.00011140","GP_ID":"205449713","EPOCH":"2022-06-05T22:00:00.999936","CENTER_NAME":"EARTH","COUNTRY_CODE":"US","ARG_OF_PERICENTER":"83.1713","TIME_SYSTEM":"UTC","SITE":"AFETR","OBJECT_NAME":"STARLINK-3589","RA_OF_ASC_NODE":"64.5644","OBJECT_TYPE":"PAYLOAD","CLASSIFICATION_TYPE":"U"},{"TIME_SYSTEM":"UTC","SITE":"AFETR","OBJECT_NAME":"STARLINK-3618","OBJECT_TYPE":"PAYLOAD","RA_OF_ASC_NODE":"64.6956","CLASSIFICATION_TYPE":"U","CENTER_NAME":"EARTH","COUNTRY_CODE":"US","ARG_OF_PERICENTER":"81.6094","EPOCH":"2022-06-05T22:00:00.999936","ELEMENT_SET_NO":"999","ECCENTRICITY":"0.00011660","APOAPSIS":"430.725","GP_ID":"205449166","NORAD_CAT_ID":"51998","BSTAR":"-0.01599000000000","MEAN_MOTION_DOT":"-0.00720641","EPHEMERIS_TYPE":"0","PERIAPSIS":"429.137","OBJECT_ID":"2022-025AU","SEMIMAJOR_AXIS":"6808.066","MEAN_ANOMALY":"15.3278","INCLINATION":"53.2174","TLE_LINE2":"2 51998  53.2174  64.6956 0001166  81.6094  15.3278 15.45493384  1300","DECAY_DATE":null,"TLE_LINE1":"1 51998U 22025AU  22156.91667824 -.00720641  00000-0 -15990-1 0  9999","MEAN_MOTION":"15.45493384","MEAN_ELEMENT_THEORY":"SGP4","PERIOD":"93.174","LAUNCH_DATE":"2022-03-09","REF_FRAME":"TEME","FILE":"3482995","RCS_SIZE":"LARGE","REV_AT_EPOCH":"130","MEAN_MOTION_DDOT":"0.0000000000000"},{"PERIAPSIS":"433.545","OBJECT_ID":"2022-025AV","MEAN_ANOMALY":"335.2107","SEMIMAJOR_AXIS":"6812.455","EPHEMERIS_TYPE":"0","MEAN_MOTION_DOT":"-0.00720677","BSTAR":"-0.01683100000000","NORAD_CAT_ID":"51999","REF_FRAME":"TEME","LAUNCH_DATE":"2022-03-09","PERIOD":"93.264","MEAN_MOTION_DDOT":"0.0000000000000","REV_AT_EPOCH":"130","RCS_SIZE":"LARGE","FILE":"3482995","TLE_LINE2":"2 51999  53.2175  64.6063 0001138 102.7724 335.2107 15.44000067  1301","INCLINATION":"53.2175","MEAN_ELEMENT_THEORY":"SGP4","MEAN_MOTION":"15.44000067","TLE_LINE1":"1 51999U 22025AV  22156.91667824 -.00720677  00000-0 -16831-1 0  9994","DECAY_DATE":null,"COUNTRY_CODE":"US","CENTER_NAME":"EARTH","ARG_OF_PERICENTER":"102.7724","SITE":"AFETR","TIME_SYSTEM":"UTC","CLASSIFICATION_TYPE":"U","OBJECT_TYPE":"PAYLOAD","RA_OF_ASC_NODE":"64.6063","OBJECT_NAME":"STARLINK-3667","ELEMENT_SET_NO":"999","GP_ID":"205449607","APOAPSIS":"435.095","ECCENTRICITY":"0.00011380","EPOCH":"2022-06-05T22:00:00.999936"},{"CLASSIFICATION_TYPE":"U","OBJECT_NAME":"STARLINK-3653","RA_OF_ASC_NODE":"64.7138","OBJECT_TYPE":"PAYLOAD","SITE":"AFETR","TIME_SYSTEM":"UTC","ARG_OF_PERICENTER":"84.7341","COUNTRY_CODE":"US","CENTER_NAME":"EARTH","EPOCH":"2022-06-05T22:00:00.999936","GP_ID":"205449395","APOAPSIS":"429.713","ECCENTRICITY":"0.00011560","ELEMENT_SET_NO":"999","MEAN_MOTION_DOT":"-0.00720623","EPHEMERIS_TYPE":"0","NORAD_CAT_ID":"52000","BSTAR":"-0.01580200000000","MEAN_ANOMALY":"17.3468","SEMIMAJOR_AXIS":"6807.062","PERIAPSIS":"428.140","OBJECT_ID":"2022-025AW","MEAN_MOTION":"15.45835399","TLE_LINE1":"1 52000U 22025AW  22156.91667824 -.00720623  00000-0 -15802-1 0  9996","MEAN_ELEMENT_THEORY":"SGP4","DECAY_DATE":null,"INCLINATION":"53.2174","TLE_LINE2":"2 52000  53.2174  64.7138 0001156  84.7341  17.3468 15.45835399  1305","MEAN_MOTION_DDOT":"0.0000000000000","REV_AT_EPOCH":"130","FILE":"3482995","RCS_SIZE":"LARGE","LAUNCH_DATE":"2022-03-09","REF_FRAME":"TEME","PERIOD":"93.154"},{"REV_AT_EPOCH":"130","MEAN_MOTION_DDOT":"0.0000000000000","FILE":"3482995","RCS_SIZE":"LARGE","LAUNCH_DATE":"2022-03-09","REF_FRAME":"TEME","PERIOD":"93.162","MEAN_MOTION":"15.45691327","TLE_LINE1":"1 52001U 22025AX  22156.91667824 -.00720714  00000-0 -15883-1 0  9997","MEAN_ELEMENT_THEORY":"SGP4","DECAY_DATE":null,"INCLINATION":"53.2174","TLE_LINE2":"2 52001  53.2174  64.7061 0001155  91.9385   7.8717 15.45691327  1300","MEAN_ANOMALY":"7.8717","SEMIMAJOR_AXIS":"6807.485","OBJECT_ID":"2022-025AX","PERIAPSIS":"428.563","EPHEMERIS_TYPE":"0","MEAN_MOTION_DOT":"-0.00720714","NORAD_CAT_ID":"52001","BSTAR":"-0.01588300000000","GP_ID":"205449379","ECCENTRICITY":"0.00011550","APOAPSIS":"430.136","ELEMENT_SET_NO":"999","EPOCH":"2022-06-05T22:00:00.999936","ARG_OF_PERICENTER":"91.9385","COUNTRY_CODE":"US","CENTER_NAME":"EARTH","CLASSIFICATION_TYPE":"U","OBJECT_NAME":"STARLINK-3659","OBJECT_TYPE":"PAYLOAD","RA_OF_ASC_NODE":"64.7061","SITE":"AFETR","TIME_SYSTEM":"UTC"},{"COUNTRY_CODE":"US","CENTER_NAME":"EARTH","ARG_OF_PERICENTER":"71.1359","SITE":"AFETR","TIME_SYSTEM":"UTC","CLASSIFICATION_TYPE":"U","RA_OF_ASC_NODE":"64.7155","OBJECT_TYPE":"PAYLOAD","OBJECT_NAME":"STARLINK-3668","ELEMENT_SET_NO":"999","GP_ID":"205449501","ECCENTRICITY":"0.00012200","APOAPSIS":"429.625","EPOCH":"2022-06-05T22:00:00.999936","OBJECT_ID":"2022-025AY","PERIAPSIS":"427.964","MEAN_ANOMALY":"32.2403","SEMIMAJOR_AXIS":"6806.930","MEAN_MOTION_DOT":"-0.00720651","EPHEMERIS_TYPE":"0","BSTAR":"-0.01577800000000","NORAD_CAT_ID":"52002","REF_FRAME":"TEME","LAUNCH_DATE":"2022-03-09","PERIOD":"93.151","MEAN_MOTION_DDOT":"0.0000000000000","REV_AT_EPOCH":"130","RCS_SIZE":"LARGE","FILE":"3482995","TLE_LINE2":"2 52002  53.2174  64.7155 0001220  71.1359  32.2403 15.45880225  1300","INCLINATION":"53.2174","MEAN_ELEMENT_THEORY":"SGP4","TLE_LINE1":"1 52002U 22025AY  22156.91667824 -.00720651  00000-0 -15778-1 0  9991","MEAN_MOTION":"15.45880225","DECAY_DATE":null},{"SEMIMAJOR_AXIS":"6806.349","MEAN_ANOMALY":"7.2324","PERIAPSIS":"427.422","OBJECT_ID":"2022-025AZ","NORAD_CAT_ID":"52003","BSTAR":"-0.01566600000000","EPHEMERIS_TYPE":"0","MEAN_MOTION_DOT":"-0.00720455","FILE":"3482664","RCS_SIZE":"LARGE","MEAN_MOTION_DDOT":"0.0000000000000","REV_AT_EPOCH":"1514","PERIOD":"93.139","LAUNCH_DATE":"2022-03-09","REF_FRAME":"TEME","DECAY_DATE":null,"TLE_LINE1":"1 52003U 22025AZ  22156.91667824 -.00720455  00000-0 -15666-1 0  9990","MEAN_MOTION":"15.46078069","MEAN_ELEMENT_THEORY":"SGP4","INCLINATION":"53.2174","TLE_LINE2":"2 52003  53.2174  64.7260 0001164  98.8367   7.2324 15.46078069 15147","ARG_OF_PERICENTER":"98.8367","CENTER_NAME":"EARTH","COUNTRY_CODE":"US","OBJECT_NAME":"STARLINK-3654","RA_OF_ASC_NODE":"64.7260","OBJECT_TYPE":"PAYLOAD","CLASSIFICATION_TYPE":"U","TIME_SYSTEM":"UTC","SITE":"AFETR","ECCENTRICITY":"0.00011640","APOAPSIS":"429.006","GP_ID":"205416397","ELEMENT_SET_NO":"999","EPOCH":"2022-06-05T22:00:00.999936"},{"INCLINATION":"53.2082","TLE_LINE2":"2 52088  53.2082 108.0650 0004671  84.2856 156.4985 15.81199768  1303","TLE_LINE1":"1 52088U 22029A   22156.91667824  .00051662  00000-0  25966-3 0  9998","MEAN_MOTION":"15.81199768","MEAN_ELEMENT_THEORY":"SGP4","DECAY_DATE":null,"LAUNCH_DATE":"2022-03-19","REF_FRAME":"TEME","PERIOD":"91.070","MEAN_MOTION_DDOT":"0.0000000000000","REV_AT_EPOCH":"130","FILE":"3482995","RCS_SIZE":"LARGE","MEAN_MOTION_DOT":"0.00051662","EPHEMERIS_TYPE":"0","NORAD_CAT_ID":"52088","BSTAR":"0.00025966000000","PERIAPSIS":"323.917","OBJECT_ID":"2022-029A","MEAN_ANOMALY":"156.4985","SEMIMAJOR_AXIS":"6705.184","EPOCH":"2022-06-05T22:00:00.999936","ELEMENT_SET_NO":"999","GP_ID":"205449404","APOAPSIS":"330.181","ECCENTRICITY":"0.00046710","SITE":"AFETR","TIME_SYSTEM":"UTC","CLASSIFICATION_TYPE":"U","OBJECT_NAME":"STARLINK-3537","OBJECT_TYPE":"PAYLOAD","RA_OF_ASC_NODE":"108.0650","COUNTRY_CODE":"US","CENTER_NAME":"EARTH","ARG_OF_PERICENTER":"84.2856"}];
